IRIDIUM 154             
1 43574U 18061F   26201.09257536  .00000017  00000+0 -88187-6 0  9993
2 43574  86.3935  43.0421 0002197  89.0133 271.1314 14.34217324418122
IRIDIUM 163             
1 43575U 18061G   26201.07354741  .00000074  00000+0  19263-4 0  9997
2 43575  86.3935  42.9641 0002123  87.7459 272.3980 14.34217883418098
IRIDIUM 156             
1 43576U 18061H   26201.04817555  .00000123  00000+0  36737-4 0  9992
2 43576  86.3937  42.9825 0002176  93.6055 266.5390 14.34216885418081
IRIDIUM 164             
1 43577U 18061J   26201.09891790 -.00000041  00000+0 -21582-4 0  9994
2 43577  86.3934  43.0018 0002231  88.6858 271.4593 14.34217458418135
IRIDIUM 159             
1 43578U 18061K   26201.27650984  .00000013  00000+0 -22647-5 0  9995
2 43578  86.3936  42.8637 0002105  87.1425 273.0012 14.34217546418127
IRIDIUM 180             
1 43922U 19002A   26201.13646962 -.00000095  00000+0 -40965-4 0  9993
2 43922  86.3993 339.8247 0002056  91.5090 268.6342 14.34217046393719
IRIDIUM 176             
1 43923U 19002B   26201.12344377  .00000399  00000+0  59360-4 0  9992
2 43923  86.6118 339.7686 0002348  91.8302 268.3184 14.72252723404099
IRIDIUM 168             
1 43924U 19002C   26201.13012785  .00000134  00000+0  40688-4 0  9999
2 43924  86.4000 339.9051 0002206  91.5115 268.6334 14.34217862393694
IRIDIUM 173             
1 43925U 19002D   26200.90813588  .00000031  00000+0  40292-5 0  9992
2 43925  86.3997 339.8855 0002135  92.8731 267.2709 14.34217995393642
IRIDIUM 169             
1 43926U 19002E   26201.22163819  .00000083  00000+0  20738-4 0  9993
2 43926  86.4228  11.3782 0002074 104.5283 255.6145 14.38604651394972
IRIDIUM 172             
1 43927U 19002F   26201.32040448  .00000081  00000+0  21925-4 0  9994
2 43927  86.3997 339.7214 0002197  91.8856 268.2591 14.34218185393717
IRIDIUM 175             
1 43928U 19002G   26201.13090340  .00000173  00000+0  45192-4 0  9994
2 43928  86.4506 276.7510 0005504 105.8292 254.3516 14.43628804403739
IRIDIUM 171             
1 43929U 19002H   26200.88276641  .00000033  00000+0  48002-5 0  9995
2 43929  86.4007 340.2139 0002262  95.8722 264.2731 14.34217185393647
IRIDIUM 170             
1 43930U 19002J   26200.92570848  .00000393  00000+0  58472-4 0  9998
2 43930  86.6116 339.8533 0002209  89.0651 271.0820 14.72253161404072
IRIDIUM 167             
1 43931U 19002K   26200.87642342  .00000025  00000+0  19155-5 0  9990
2 43931  86.3997 339.9293 0002373  97.7113 262.4352 14.34217647393643
IRIDIUM 181             
1 56726U 23068S   26201.10724738  .00000167  00000+0  43592-4 0  9998
2 56726  86.4474  43.0228 0002365  83.9043 276.2427 14.43308722167180
IRIDIUM 177             
1 56727U 23068T   26201.31544648  .00000596  00000+0  75277-4 0  9993
2 56727  86.1987 313.0643 0002232  97.6936 262.4539 14.80029340171266
IRIDIUM 174             
1 56728U 23068U   26201.32104916  .00000456  00000+0  68398-4 0  9996
2 56728  86.6124 339.8388 0001940  92.5952 267.5487 14.72258683170895
IRIDIUM 178             
1 56729U 23068V   26201.16924097  .00000116  00000+0  11870-4 0  9995
2 56729  86.6543  11.5753 0002244  92.2254 267.9225 14.80021472171248
IRIDIUM 179             
1 56730U 23068W   26201.23150522  .00000148  00000+0  16045-4 0  9993
2 56730  86.6769  20.6256 0002384  94.1261 266.0233 14.80024019171253
